{
    "links": {
        "self": "http://www.neowsapp.com/rest/v1/neo/54051243?api_key=iIulBulltgU6a56xZRHN4H3l9WmuAYTsLGpBGhQ2"
    },
    "id": "54051243",
    "neo_reference_id": "54051243",
    "name": "(2020 QR1)",
    "designation": "2020 QR1",
    "nasa_jpl_url": "http://ssd.jpl.nasa.gov/sbdb.cgi?sstr=54051243",
    "absolute_magnitude_h": 25.752,
    "estimated_diameter": {
        "kilometers": {
            "estimated_diameter_min": 0.0187998756,
            "estimated_diameter_max": 0.0420377999
        },
        "meters": {
            "estimated_diameter_min": 18.7998756471,
            "estimated_diameter_max": 42.0377999155
        },
        "miles": {
            "estimated_diameter_min": 0.0116816975,
            "estimated_diameter_max": 0.0261210698
        },
        "feet": {
            "estimated_diameter_min": 61.6793840181,
            "estimated_diameter_max": 137.9192954747
        }
    },
    "is_potentially_hazardous_asteroid": false,
    "close_approach_data": [
        {
            "close_approach_date": "2020-07-29",
            "close_approach_date_full": "2020-Jul-29 12:06",
            "epoch_date_close_approach": 1596024360000,
            "relative_velocity": {
                "kilometers_per_second": "8.7837136431",
                "kilometers_per_hour": "31621.369115246",
                "miles_per_hour": "19648.2890483038"
            },
            "miss_distance": {
                "astronomical": "0.0742832018",
                "lunar": "28.8961655002",
                "kilometers": "11112608.766060166",
                "miles": "6905054.8955796508"
            },
            "orbiting_body": "Earth"
        }
    ],
    "orbital_data": {
        "orbit_id": "1",
        "orbit_determination_date": "2020-08-19 13:42:07",
        "first_observation_date": "2020-08-16",
        "last_observation_date": "2020-08-19",
        "data_arc_in_days": 3,
        "observations_used": 9,
        "orbit_uncertainty": "9",
        "minimum_orbit_intersection": ".0685748",
        "jupiter_tisserand_invariant": "3.634",
        "epoch_osculation": "2459079.5",
        "eccentricity": ".4883131951244936",
        "semi_major_axis": "2.038670400126528",
        "inclination": "7.970213591101707",
        "ascending_node_longitude": "141.6557531153064",
        "orbital_period": "1063.209755674116",
        "perihelion_distance": "1.043160743235013",
        "perihelion_argument": "140.2782087523706",
        "aphelion_distance": "3.034180057018042",
        "perihelion_time": "2459039.223345746502",
        "mean_anomaly": "13.63756817869487",
        "mean_motion": ".3385973445773605",
        "equinox": "J2000",
        "orbit_class": {
            "orbit_class_type": "AMO",
            "orbit_class_description": "Near-Earth asteroid orbits similar to that of 1221 Amor",
            "orbit_class_range": "1.017 AU < q (perihelion) < 1.3 AU"
        }
    },
    "is_sentry_object": false
}